<?xml version="1.0" encoding="UTF-8"?>
<ndm xmlns:xsi="http://www.w3.org/2001/XMLSchema-instance" xsi:noNamespaceSchemaLocation="https://sanaregistry.org/r/ndmxml_unqualified/ndmxml-2.0.0-master-2.0.xsd">
<omm id="CCSDS_OMM_VERS" version="2.0">
<header><CREATION_DATE/><ORIGINATOR/></header><body><segment><metadata><OBJECT_NAME>ORBCOMM-X</OBJECT_NAME><OBJECT_ID>1991-050C</OBJECT_ID><CENTER_NAME>EARTH</CENTER_NAME><REF_FRAME>TEME</REF_FRAME><TIME_SYSTEM>UTC</TIME_SYSTEM><MEAN_ELEMENT_THEORY>SGP4</MEAN_ELEMENT_THEORY></metadata><data><meanElements><EPOCH>2026-01-27T15:18:04.032288</EPOCH><MEAN_MOTION>14.43482941</MEAN_MOTION><ECCENTRICITY>.00029251</ECCENTRICITY><INCLINATION>98.3156</INCLINATION><RA_OF_ASC_NODE>94.3575</RA_OF_ASC_NODE><ARG_OF_PERICENTER>210.6840</ARG_OF_PERICENTER><MEAN_ANOMALY>149.4180</MEAN_ANOMALY></meanElements><tleParameters><EPHEMERIS_TYPE>0</EPHEMERIS_TYPE><CLASSIFICATION_TYPE>U</CLASSIFICATION_TYPE><NORAD_CAT_ID>21576</NORAD_CAT_ID><ELEMENT_SET_NO>999</ELEMENT_SET_NO><REV_AT_EPOCH>81449</REV_AT_EPOCH><BSTAR>.18128013E-3</BSTAR><MEAN_MOTION_DOT>.57E-5</MEAN_MOTION_DOT><MEAN_MOTION_DDOT>0</MEAN_MOTION_DDOT></tleParameters></data></segment></body></omm>
<omm id="CCSDS_OMM_VERS" version="2.0">
<header><CREATION_DATE/><ORIGINATOR/></header><body><segment><metadata><OBJECT_NAME>ORBCOMM FM01</OBJECT_NAME><OBJECT_ID>1995-017A</OBJECT_ID><CENTER_NAME>EARTH</CENTER_NAME><REF_FRAME>TEME</REF_FRAME><TIME_SYSTEM>UTC</TIME_SYSTEM><MEAN_ELEMENT_THEORY>SGP4</MEAN_ELEMENT_THEORY></metadata><data><meanElements><EPOCH>2026-01-27T00:42:29.748672</EPOCH><MEAN_MOTION>14.93888198</MEAN_MOTION><ECCENTRICITY>.00055313</ECCENTRICITY><INCLINATION>69.9602</INCLINATION><RA_OF_ASC_NODE>234.4926</RA_OF_ASC_NODE><ARG_OF_PERICENTER>302.0971</ARG_OF_PERICENTER><MEAN_ANOMALY>57.9648</MEAN_ANOMALY></meanElements><tleParameters><EPHEMERIS_TYPE>0</EPHEMERIS_TYPE><CLASSIFICATION_TYPE>U</CLASSIFICATION_TYPE><NORAD_CAT_ID>23545</NORAD_CAT_ID><ELEMENT_SET_NO>999</ELEMENT_SET_NO><REV_AT_EPOCH>64589</REV_AT_EPOCH><BSTAR>.94766714E-3</BSTAR><MEAN_MOTION_DOT>.10019E-3</MEAN_MOTION_DOT><MEAN_MOTION_DDOT>0</MEAN_MOTION_DDOT></tleParameters></data></segment></body></omm>
<omm id="CCSDS_OMM_VERS" version="2.0">
<header><CREATION_DATE/><ORIGINATOR/></header><body><segment><metadata><OBJECT_NAME>ORBCOMM FM02</OBJECT_NAME><OBJECT_ID>1995-017B</OBJECT_ID><CENTER_NAME>EARTH</CENTER_NAME><REF_FRAME>TEME</REF_FRAME><TIME_SYSTEM>UTC</TIME_SYSTEM><MEAN_ELEMENT_THEORY>SGP4</MEAN_ELEMENT_THEORY></metadata><data><meanElements><EPOCH>2026-01-27T14:06:01.159488</EPOCH><MEAN_MOTION>14.95779214</MEAN_MOTION><ECCENTRICITY>.00067053</ECCENTRICITY><INCLINATION>69.9616</INCLINATION><RA_OF_ASC_NODE>251.4205</RA_OF_ASC_NODE><ARG_OF_PERICENTER>308.4197</ARG_OF_PERICENTER><MEAN_ANOMALY>51.6358</MEAN_ANOMALY></meanElements><tleParameters><EPHEMERIS_TYPE>0</EPHEMERIS_TYPE><CLASSIFICATION_TYPE>U</CLASSIFICATION_TYPE><NORAD_CAT_ID>23546</NORAD_CAT_ID><ELEMENT_SET_NO>999</ELEMENT_SET_NO><REV_AT_EPOCH>64565</REV_AT_EPOCH><BSTAR>.10955205E-2</BSTAR><MEAN_MOTION_DOT>.12176E-3</MEAN_MOTION_DOT><MEAN_MOTION_DDOT>0</MEAN_MOTION_DDOT></tleParameters></data></segment></body></omm>
<omm id="CCSDS_OMM_VERS" version="2.0">
<header><CREATION_DATE/><ORIGINATOR/></header><body><segment><metadata><OBJECT_NAME>ORBCOMM FM08</OBJECT_NAME><OBJECT_ID>1997-084A</OBJECT_ID><CENTER_NAME>EARTH</CENTER_NAME><REF_FRAME>TEME</REF_FRAME><TIME_SYSTEM>UTC</TIME_SYSTEM><MEAN_ELEMENT_THEORY>SGP4</MEAN_ELEMENT_THEORY></metadata><data><meanElements><EPOCH>2026-01-26T23:46:07.672512</EPOCH><MEAN_MOTION>14.46805389</MEAN_MOTION><ECCENTRICITY>.00083207</ECCENTRICITY><INCLINATION>45.0145</INCLINATION><RA_OF_ASC_NODE>12.7535</RA_OF_ASC_NODE><ARG_OF_PERICENTER>302.4755</ARG_OF_PERICENTER><MEAN_ANOMALY>57.5292</MEAN_ANOMALY></meanElements><tleParameters><EPHEMERIS_TYPE>0</EPHEMERIS_TYPE><CLASSIFICATION_TYPE>U</CLASSIFICATION_TYPE><NORAD_CAT_ID>25112</NORAD_CAT_ID><ELEMENT_SET_NO>999</ELEMENT_SET_NO><REV_AT_EPOCH>47377</REV_AT_EPOCH><BSTAR>.83570554E-3</BSTAR><MEAN_MOTION_DOT>.2914E-4</MEAN_MOTION_DOT><MEAN_MOTION_DDOT>0</MEAN_MOTION_DDOT></tleParameters></data></segment></body></omm>
<omm id="CCSDS_OMM_VERS" version="2.0">
<header><CREATION_DATE/><ORIGINATOR/></header><body><segment><metadata><OBJECT_NAME>ORBCOMM FM10</OBJECT_NAME><OBJECT_ID>1997-084B</OBJECT_ID><CENTER_NAME>EARTH</CENTER_NAME><REF_FRAME>TEME</REF_FRAME><TIME_SYSTEM>UTC</TIME_SYSTEM><MEAN_ELEMENT_THEORY>SGP4</MEAN_ELEMENT_THEORY></metadata><data><meanElements><EPOCH>2026-01-27T15:05:51.050976</EPOCH><MEAN_MOTION>14.46543639</MEAN_MOTION><ECCENTRICITY>.00066754</ECCENTRICITY><INCLINATION>45.0160</INCLINATION><RA_OF_ASC_NODE>12.4908</RA_OF_ASC_NODE><ARG_OF_PERICENTER>279.5044</ARG_OF_PERICENTER><MEAN_ANOMALY>80.5054</MEAN_ANOMALY></meanElements><tleParameters><EPHEMERIS_TYPE>0</EPHEMERIS_TYPE><CLASSIFICATION_TYPE>U</CLASSIFICATION_TYPE><NORAD_CAT_ID>25113</NORAD_CAT_ID><ELEMENT_SET_NO>999</ELEMENT_SET_NO><REV_AT_EPOCH>64900</REV_AT_EPOCH><BSTAR>.80523573E-3</BSTAR><MEAN_MOTION_DOT>.2786E-4</MEAN_MOTION_DOT><MEAN_MOTION_DDOT>0</MEAN_MOTION_DDOT></tleParameters></data></segment></body></omm>
<omm id="CCSDS_OMM_VERS" version="2.0">
<header><CREATION_DATE/><ORIGINATOR/></header><body><segment><metadata><OBJECT_NAME>ORBCOMM FM11</OBJECT_NAME><OBJECT_ID>1997-084C</OBJECT_ID><CENTER_NAME>EARTH</CENTER_NAME><REF_FRAME>TEME</REF_FRAME><TIME_SYSTEM>UTC</TIME_SYSTEM><MEAN_ELEMENT_THEORY>SGP4</MEAN_ELEMENT_THEORY></metadata><data><meanElements><EPOCH>2026-01-27T01:14:11.118048</EPOCH><MEAN_MOTION>14.46280849</MEAN_MOTION><ECCENTRICITY>.00074907</ECCENTRICITY><INCLINATION>45.0141</INCLINATION><RA_OF_ASC_NODE>16.3141</RA_OF_ASC_NODE><ARG_OF_PERICENTER>277.5350</ARG_OF_PERICENTER><MEAN_ANOMALY>82.4651</MEAN_ANOMALY></meanElements><tleParameters><EPHEMERIS_TYPE>0</EPHEMERIS_TYPE><CLASSIFICATION_TYPE>U</CLASSIFICATION_TYPE><NORAD_CAT_ID>25114</NORAD_CAT_ID><ELEMENT_SET_NO>999</ELEMENT_SET_NO><REV_AT_EPOCH>47387</REV_AT_EPOCH><BSTAR>.76814053E-3</BSTAR><MEAN_MOTION_DOT>.2636E-4</MEAN_MOTION_DOT><MEAN_MOTION_DDOT>0</MEAN_MOTION_DDOT></tleParameters></data></segment></body></omm>
<omm id="CCSDS_OMM_VERS" version="2.0">
<header><CREATION_DATE/><ORIGINATOR/></header><body><segment><metadata><OBJECT_NAME>ORBCOMM FM12</OBJECT_NAME><OBJECT_ID>1997-084D</OBJECT_ID><CENTER_NAME>EARTH</CENTER_NAME><REF_FRAME>TEME</REF_FRAME><TIME_SYSTEM>UTC</TIME_SYSTEM><MEAN_ELEMENT_THEORY>SGP4</MEAN_ELEMENT_THEORY></metadata><data><meanElements><EPOCH>2026-01-27T15:10:43.410432</EPOCH><MEAN_MOTION>14.46309866</MEAN_MOTION><ECCENTRICITY>.00065757</ECCENTRICITY><INCLINATION>45.0151</INCLINATION><RA_OF_ASC_NODE>13.2497</RA_OF_ASC_NODE><ARG_OF_PERICENTER>279.0287</ARG_OF_PERICENTER><MEAN_ANOMALY>80.9820</MEAN_ANOMALY></meanElements><tleParameters><EPHEMERIS_TYPE>0</EPHEMERIS_TYPE><CLASSIFICATION_TYPE>U</CLASSIFICATION_TYPE><NORAD_CAT_ID>25115</NORAD_CAT_ID><ELEMENT_SET_NO>999</ELEMENT_SET_NO><REV_AT_EPOCH>47375</REV_AT_EPOCH><BSTAR>.8353603E-3</BSTAR><MEAN_MOTION_DOT>.2881E-4</MEAN_MOTION_DOT><MEAN_MOTION_DDOT>0</MEAN_MOTION_DDOT></tleParameters></data></segment></body></omm>
<omm id="CCSDS_OMM_VERS" version="2.0">
<header><CREATION_DATE/><ORIGINATOR/></header><body><segment><metadata><OBJECT_NAME>ORBCOMM FM09</OBJECT_NAME><OBJECT_ID>1997-084E</OBJECT_ID><CENTER_NAME>EARTH</CENTER_NAME><REF_FRAME>TEME</REF_FRAME><TIME_SYSTEM>UTC</TIME_SYSTEM><MEAN_ELEMENT_THEORY>SGP4</MEAN_ELEMENT_THEORY></metadata><data><meanElements><EPOCH>2026-01-27T06:32:09.465792</EPOCH><MEAN_MOTION>14.46138949</MEAN_MOTION><ECCENTRICITY>.0007565</ECCENTRICITY><INCLINATION>45.0154</INCLINATION><RA_OF_ASC_NODE>16.1668</RA_OF_ASC_NODE><ARG_OF_PERICENTER>266.9351</ARG_OF_PERICENTER><MEAN_ANOMALY>93.0635</MEAN_ANOMALY></meanElements><tleParameters><EPHEMERIS_TYPE>0</EPHEMERIS_TYPE><CLASSIFICATION_TYPE>U</CLASSIFICATION_TYPE><NORAD_CAT_ID>25116</NORAD_CAT_ID><ELEMENT_SET_NO>999</ELEMENT_SET_NO><REV_AT_EPOCH>47390</REV_AT_EPOCH><BSTAR>.8242E-3</BSTAR><MEAN_MOTION_DOT>.283E-4</MEAN_MOTION_DOT><MEAN_MOTION_DDOT>0</MEAN_MOTION_DDOT></tleParameters></data></segment></body></omm>

</ndm>
