ORBCOMM-X               
1 21576U 91050C   26027.63754667  .00000570  00000+0  18128-3 0  9991
2 21576  98.3156  94.3575 0002925 210.6840 149.4180 14.43482941814490
ORBCOMM FM01            
1 23545U 95017A   26027.02951098  .00010019  00000+0  94767-3 0  9998
2 23545  69.9602 234.4926 0005531 302.0971  57.9648 14.93888198645899
ORBCOMM FM02            
1 23546U 95017B   26027.58751342  .00012176  00000+0  10955-2 0  9992
2 23546  69.9616 251.4205 0006705 308.4197  51.6358 14.95779214645651
ORBCOMM FM08            
1 25112U 97084A   26026.99036658  .00002914  00000+0  83571-3 0  9993
2 25112  45.0145  12.7535 0008320 302.4755  57.5292 14.46805389473770
ORBCOMM FM10            
1 25113U 97084B   26027.62906309  .00002786  00000+0  80524-3 0  9996
2 25113  45.0160  12.4908 0006675 279.5044  80.5054 14.46543639649005
ORBCOMM FM11            
1 25114U 97084C   26027.05151757  .00002636  00000+0  76814-3 0  9994
2 25114  45.0141  16.3141 0007490 277.5350  82.4651 14.46280849473876
ORBCOMM FM12            
1 25115U 97084D   26027.63244688  .00002881  00000+0  83536-3 0  9996
2 25115  45.0151  13.2497 0006576 279.0287  80.9820 14.46309866473757
ORBCOMM FM09            
1 25116U 97084E   26027.27233178  .00002830  00000+0  82420-3 0  9994
2 25116  45.0154  16.1668 0007565 266.9351  93.0635 14.46138949473907
